1 25338U 98030A   22022.55568072  .00000043  00000-0  36465-4 0  9992
2 25338  98.6614  53.8763 0010412   8.7406 351.3953 14.26084114232223